[
  {
    "type": "node",
    "id": 5155574229,
    "lat": 52.5140282,
    "lon": 13.3957076,
    "tags": {
      "addr:city": "Berlin",
      "addr:housenumber": "27",
      "addr:postcode": "10117",
      "addr:street": "J\u00e4gerstra\u00dfe",
      "amenity": "restaurant",
      "description": "Salads and Soups",
      "diet:vegan": "yes",
      "diet:vegetarian": "yes",
      "name": "Little Green Rabbit",
      "opening_hours": "Mo-Fr 11:00-15:30",
      "website": "https://www.littlegreenrabbit.de/gendarmenmarkt",
      "wheelchair": "yes"
    }
  },
  {
    "type": "node",
    "id": 5185413424,
    "lat": 52.5278637,
    "lon": 13.400984,
    "tags": {
      "amenity": "restaurant",
      "check_date": "2024-06-15",
      "cuisine": "italian",
      "level": "0",
      "name": "Da Piadina",
      "opening_hours": "Mo-Sa 12:00-24:00",
      "outdoor_seating": "yes",
      "payment:cash": "yes",
      "payment:credit_cards": "yes",
      "payment:debit_cards": "yes",
      "wheelchair": "no"
    }
  },
  {
    "type": "node",
    "id": 5196452422,
    "lat": 52.5142513,
    "lon": 13.3971703,
    "tags": {
      "addr:city": "Berlin",
      "addr:country": "DE",
      "addr:housenumber": "34",
      "addr:postcode": "10117",
      "addr:street": "J\u00e4gerstra\u00dfe",
      "addr:suburb": "Mitte",
      "amenity": "restaurant",
      "indoor_seating": "yes",
      "name": "Lunchtime",
      "opening_hours": "Mo-Fr 06:00-19:00; Sa 07:00-18:00",
      "outdoor_seating": "yes",
      "wheelchair": "no"
    }
  },
  {
    "type": "node",
    "id": 5333432121,
    "lat": 52.528181,
    "lon": 13.4005219,
    "tags": {
      "addr:city": "Berlin",
      "addr:country": "DE",
      "addr:housenumber": "11",
      "addr:postcode": "10119",
      "addr:street": "Joachimstra\u00dfe",
      "addr:suburb": "Mitte",
      "amenity": "restaurant",
      "contact:facebook": "https://www.facebook.com/Chipperfield-Kantine-1421133724770555/",
      "contact:website": "https://kantine-berlinmitte.de",
      "indoor_seating": "yes",
      "name": "Chipperfield Kantine",
      "opening_hours": "Mo-Th 08:30-17:00; Fr 08:30-19:00",
      "outdoor_seating": "yes",
      "wheelchair": "yes"
    }
  },
  {
    "type": "node",
    "id": 5336750821,
    "lat": 52.5247036,
    "lon": 13.4099587,
    "tags": {
      "addr:city": "Berlin",
      "addr:country": "DE",
      "addr:housenumber": "11-13",
      "addr:postcode": "10178",
      "addr:street": "Rosa-Luxemburg-Stra\u00dfe",
      "addr:suburb": "Mitte",
      "amenity": "bar",
      "check_date": "2024-03-03",
      "name": "Lux 11"
    }
  },
  {
    "type": "node",
    "id": 5383468835,
    "lat": 52.5241939,
    "lon": 13.3992695,
    "tags": {
      "addr:city": "Berlin",
      "addr:country": "DE",
      "addr:housenumber": "21",
      "addr:postcode": "10115",
      "addr:street": "Gro\u00dfe Hamburger Stra\u00dfe",
      "addr:suburb": "Mitte",
      "amenity": "restaurant",
      "cuisine": "italian",
      "indoor_seating": "yes",
      "internet_access": "wlan",
      "internet_access:fee": "no",
      "name": "Pulcinella",
      "opening_hours": "Mo-Sa 12:00-23:00; PH,Su off",
      "outdoor_seating": "yes",
      "phone": "+49 30 40551919",
      "website": "https://www.trattoria-pulcinella.de/",
      "wheelchair": "yes"
    }
  },
  {
    "type": "node",
    "id": 5383468836,
    "lat": 52.5242768,
    "lon": 13.3992434,
    "tags": {
      "addr:city": "Berlin",
      "addr:country": "DE",
      "addr:housenumber": "20",
      "addr:postcode": "10115",
      "addr:street": "Gro\u00dfe Hamburger Stra\u00dfe",
      "addr:suburb": "Mitte",
      "amenity": "restaurant",
      "contact:website": "http://www.creasian.berlin/",
      "cuisine": "asian",
      "indoor_seating": "yes",
      "name": "Creasian",
      "opening_hours": "12:00-23:00",
      "outdoor_seating": "yes",
      "payment:cash": "yes",
      "payment:credit_cards": "no",
      "payment:debit_cards": "no",
      "toilets:wheelchair": "no",
      "wheelchair": "yes"
    }
  },
  {
    "type": "node",
    "id": 5393663164,
    "lat": 52.5235734,
    "lon": 13.4091132,
    "tags": {
      "addr:city": "Berlin",
      "addr:country": "DE",
      "addr:housenumber": "5",
      "addr:postcode": "10178",
      "addr:street": "Rosa-Luxemburg-Stra\u00dfe",
      "addr:suburb": "Mitte",
      "amenity": "restaurant",
      "cuisine": "japanese",
      "diet:vegan": "only",
      "diet:vegetarian": "only",
      "indoor_seating": "yes",
      "name": "Beyond Ramen",
      "opening_hours": "Su-Th 12:00-22:30; Fr,Sa 12:00-23:30",
      "outdoor_seating": "yes"
    }
  },
  {
    "type": "node",
    "id": 5393663166,
    "lat": 52.5222001,
    "lon": 13.4083924,
    "tags": {
      "addr:city": "Berlin",
      "addr:housenumber": "13",
      "addr:postcode": "10178",
      "addr:street": "Karl-Liebknecht-Stra\u00dfe",
      "air_conditioning": "yes",
      "amenity": "restaurant",
      "contact:website": "https://www.thereed.de",
      "description": "Restaurant und Eventlocation",
      "image": "https://www.thereed.de/files/generate/1920/1523951531_REED_Interior_Restaurant_180215_361_eRGB.jpg;https://www.thereed.de/files/generate/1920/1529912858_REED_Interior_Restaurant_180215_368_eRGB1.jpg",
      "indoor_seating": "yes",
      "level": "1",
      "name": "The Reed",
      "note": "maybe it's more than a restaurant, not quite clear",
      "opening_hours": "Mo-Su 07:00+",
      "outdoor_seating": "no",
      "smoking": "no",
      "wheelchair": "yes"
    }
  },
  {
    "type": "node",
    "id": 5534476038,
    "lat": 52.5237679,
    "lon": 13.4102103,
    "tags": {
      "addr:city": "Berlin",
      "addr:country": "DE",
      "addr:housenumber": "3",
      "addr:postcode": "10178",
      "addr:street": "Memhardstra\u00dfe",
      "addr:suburb": "Mitte",
      "amenity": "restaurant",
      "brand": "L'Osteria",
      "brand:wikidata": "Q17323478",
      "brand:wikimedia_commons": "Category:L\u2019Osteria",
      "brand:wikipedia": "de:L\u2019Osteria",
      "cuisine": "italian",
      "diet:vegetarian": "yes",
      "email": "memhardstrasse@losteria.de",
      "indoor_seating": "yes",
      "internet_access": "wlan",
      "name": "L'Osteria",
      "opening_hours": "Mo-Su,PH 12:00-22:00",
      "outdoor_seating": "yes",
      "phone": "+49 30 28043240",
      "website": "https://losteria.net/de/restaurants/restaurant/berlin-memhardstrasse/",
      "wheelchair": "yes"
    }
  },
  {
    "type": "node",
    "id": 5597962251,
    "lat": 52.5229753,
    "lon": 13.4100471,
    "tags": {
      "addr:city": "Berlin",
      "addr:country": "DE",
      "addr:housenumber": "15",
      "addr:postcode": "10178",
      "addr:street": "Karl-Liebknecht-Stra\u00dfe",
      "addr:suburb": "Mitte",
      "amenity": "restaurant",
      "check_date": "2023-04-13",
      "contact:website": "http://www.mamavan.de/",
      "cuisine": "vietnamese;sandwich",
      "indoor_seating": "yes",
      "name": "Mama V\u00e2n",
      "opening_hours": "Mo-Su 10:00-22:00",
      "outdoor_seating": "yes",
      "payment:credit_cards": "yes",
      "payment:debit_cards": "yes",
      "payment:mastercard": "yes",
      "payment:visa": "yes",
      "wheelchair": "no"
    }
  },
  {
    "type": "node",
    "id": 5724470446,
    "lat": 52.5201674,
    "lon": 13.4031215,
    "tags": {
      "addr:city": "Berlin",
      "addr:country": "DE",
      "addr:housenumber": "5",
      "addr:postcode": "10178",
      "addr:street": "Karl-Liebknecht-Stra\u00dfe",
      "addr:suburb": "Mitte",
      "amenity": "restaurant",
      "contact:website": "http://www.peretti-berlin.com/",
      "cuisine": "italian",
      "name": "Trattoria Peretti",
      "opening_hours": "11:00-00:00",
      "outdoor_seating": "yes",
      "wheelchair": "yes"
    }
  },
  {
    "type": "node",
    "id": 5726198087,
    "lat": 52.5212657,
    "lon": 13.4036317,
    "tags": {
      "addr:city": "Berlin",
      "addr:country": "DE",
      "addr:housenumber": "2",
      "addr:postcode": "10178",
      "addr:street": "Spandauer Stra\u00dfe",
      "addr:suburb": "Mitte",
      "amenity": "bar",
      "check_date": "2023-06-28",
      "cuisine": "waffle;ice_cream",
      "name": "Icebar",
      "wheelchair": "yes"
    }
  },
  {
    "type": "node",
    "id": 5743959921,
    "lat": 52.524694,
    "lon": 13.4020731,
    "tags": {
      "addr:city": "Berlin",
      "addr:country": "DE",
      "addr:housenumber": "36",
      "addr:postcode": "10178",
      "addr:street": "Rosenthaler Stra\u00dfe",
      "addr:suburb": "Mitte",
      "amenity": "restaurant",
      "cuisine": "italian;pizza",
      "name": "Capvin",
      "outdoor_seating": "yes",
      "toilets:wheelchair": "limited",
      "website": "https://www.capvin.de/",
      "wheelchair": "limited"
    }
  },
  {
    "type": "node",
    "id": 5770745354,
    "lat": 52.525368,
    "lon": 13.3932509,
    "tags": {
      "amenity": "restaurant",
      "check_date": "2024-06-09",
      "cuisine": "italian",
      "indoor_seating": "yes",
      "level": "0",
      "name": "Vino e basilico",
      "outdoor_seating": "yes",
      "payment:cash": "yes",
      "payment:credit_cards": "yes",
      "payment:debit_cards": "yes",
      "wheelchair": "limited"
    }
  },
  {
    "type": "node",
    "id": 5800889978,
    "lat": 52.5239987,
    "lon": 13.4073509,
    "tags": {
      "addr:housenumber": "3",
      "addr:street": "Rochstra\u00dfe",
      "amenity": "bar",
      "check_date": "2023-01-29",
      "internet_access": "wlan",
      "internet_access:fee": "no",
      "name": "Antikriegscaf\u00e9 COOP",
      "opening_hours": "Mo-Sa 18:00-03:00",
      "outdoor_seating": "yes",
      "payment:coins": "yes",
      "payment:notes": "yes",
      "smoking": "no",
      "wheelchair": "no"
    }
  },
  {
    "type": "node",
    "id": 5836908227,
    "lat": 52.5181787,
    "lon": 13.4153916,
    "tags": {
      "addr:city": "Berlin",
      "addr:country": "DE",
      "addr:housenumber": "94",
      "addr:postcode": "10178",
      "addr:street": "Dircksenstra\u00dfe",
      "addr:suburb": "Mitte",
      "amenity": "restaurant",
      "check_date:opening_hours": "2024-04-26",
      "contact:website": "http://indian-village.berlin/",
      "cuisine": "indian",
      "diet:halal": "yes",
      "name": "Indian Village",
      "opening_hours": "Mo-Su 11:00-23:00",
      "opening_hours:signed": "no"
    }
  },
  {
    "type": "node",
    "id": 5837637799,
    "lat": 52.5244238,
    "lon": 13.3956778,
    "tags": {
      "addr:city": "Berlin",
      "addr:country": "DE",
      "addr:housenumber": "1",
      "addr:postcode": "10115",
      "addr:street": "Krausnickstra\u00dfe",
      "addr:suburb": "Mitte",
      "amenity": "bar",
      "name": "Mr. Susan",
      "opening_hours": "Tu-Sa 18:00-02:00",
      "wheelchair": "no"
    }
  },
  {
    "type": "node",
    "id": 6026591785,
    "lat": 52.5255024,
    "lon": 13.4081148,
    "tags": {
      "addr:housenumber": "13",
      "addr:postcode": "10119",
      "addr:street": "Max-Beer-Stra\u00dfe",
      "amenity": "restaurant",
      "cuisine": "japanese",
      "name": "Shiori",
      "opening_hours": "Mo-Sa 19:30-22:30",
      "website": "https://shioriberlin.com/"
    }
  },
  {
    "type": "node",
    "id": 6058583255,
    "lat": 52.5273307,
    "lon": 13.4057043,
    "tags": {
      "addr:city": "Berlin",
      "addr:country": "DE",
      "addr:housenumber": "29",
      "addr:postcode": "10119",
      "addr:street": "Mulackstra\u00dfe",
      "addr:suburb": "Mitte",
      "amenity": "restaurant",
      "check_date": "2023-11-06",
      "contact:instagram": "https://instagram.com/iimoriramen",
      "cuisine": "ramen",
      "diet:vegan": "yes",
      "indoor_seating": "yes",
      "level": "0",
      "name": "Iimori Ramen",
      "opening_hours": "Mo-Th 12:00-22:00; Fr-Sa 13:00-22:00",
      "outdoor_seating": "yes",
      "payment:credit_cards": "yes",
      "payment:debit_cards": "yes",
      "phone": "+49 30 33905188",
      "wheelchair": "no"
    }
  },
  {
    "type": "node",
    "id": 6206716203,
    "lat": 52.5173379,
    "lon": 13.4052915,
    "tags": {
      "addr:city": "Berlin",
      "addr:country": "DE",
      "addr:housenumber": "23",
      "addr:postcode": "10178",
      "addr:street": "Rathausstra\u00dfe",
      "addr:suburb": "Mitte",
      "amenity": "restaurant",
      "contact:email": "info@ngonberlin.de",
      "contact:phone": "+49 174 1923359",
      "cuisine": "vietnamese",
      "level": "1",
      "name": "Ngon",
      "opening_hours": "Mo-Th 17:00-24:00; Fr-Su 12:00-24:00",
      "toilets:wheelchair": "yes",
      "website": "https://www.ngonberlin.de/",
      "wheelchair": "yes"
    }
  },
  {
    "type": "node",
    "id": 6708250137,
    "lat": 52.5272448,
    "lon": 13.3991334,
    "tags": {
      "addr:city": "Berlin",
      "addr:housenumber": "2",
      "addr:postcode": "10119",
      "addr:street": "Gipsstra\u00dfe",
      "addr:suburb": "Mitte",
      "amenity": "restaurant",
      "check_date": "2024-06-10",
      "contact:phone": "+49 30 35529966",
      "contact:website": "https://www.eatkwa.de/",
      "cuisine": "kebab",
      "diet:vegan": "yes",
      "diet:vegetarian": "yes",
      "indoor_seating": "yes",
      "level": "0",
      "name": "Kebap with Attitude",
      "opening_hours": "Mo-Su 12:00-23:00",
      "outdoor_seating": "yes",
      "payment:cash": "yes",
      "payment:credit_cards": "yes",
      "payment:debit_cards": "yes",
      "short_name": "KWA",
      "wheelchair": "no"
    }
  },
  {
    "type": "node",
    "id": 6728666233,
    "lat": 52.5283411,
    "lon": 13.4104587,
    "tags": {
      "addr:city": "Berlin",
      "addr:country": "DE",
      "addr:housenumber": "48",
      "addr:postcode": "10119",
      "addr:street": "Torstra\u00dfe",
      "addr:suburb": "Mitte",
      "amenity": "restaurant",
      "check_date": "2024-06-10",
      "email": "info@remi-berlin.de",
      "indoor_seating": "yes",
      "level": "0",
      "name": "Remi",
      "opening_hours": "Tu-Fr 18:00-23:00; Sa 12:00-23:00",
      "outdoor_seating": "yes",
      "payment:cash": "yes",
      "payment:credit_cards": "yes",
      "payment:debit_cards": "yes",
      "phone": "+493027593090",
      "reservation": "recommended",
      "smoking": "no",
      "website": "https://remi-berlin.de/"
    }
  },
  {
    "type": "node",
    "id": 6732708594,
    "lat": 52.5200808,
    "lon": 13.3967763,
    "tags": {
      "addr:city": "Berlin",
      "addr:country": "DE",
      "addr:housenumber": "1-3",
      "addr:postcode": "10178",
      "addr:street": "Bodestra\u00dfe",
      "addr:suburb": "Mitte",
      "amenity": "restaurant",
      "contact:phone": "+49 30 959985772",
      "contact:website": "http://www.cu-berlin.de/",
      "description": "Gerichte auf die Ausstellung abgestimmt",
      "name": "Cu29",
      "opening_hours": "Mo off; Tu-Su 10:00-18:00",
      "outdoor_seating": "yes",
      "smoking": "no",
      "wheelchair": "yes"
    }
  },
  {
    "type": "node",
    "id": 7917398840,
    "lat": 52.5230924,
    "lon": 13.4019398,
    "tags": {
      "addr:city": "Berlin",
      "addr:country": "DE",
      "addr:housenumber": "4",
      "addr:postcode": "10178",
      "addr:street": "Neue Promenade",
      "amenity": "restaurant",
      "brand": "Peter Pane",
      "brand:wikidata": "Q66084419",
      "brand:wikipedia": "nl:Peter Pane",
      "check_date": "2024-06-22",
      "contact:phone": "+49 30 28097663",
      "contact:website": "https://www.peterpane.de/gemuetliche-restaurants/hackescher-markt",
      "cuisine": "burger",
      "diet:vegan": "yes",
      "diet:vegetarian": "yes",
      "indoor_seating": "yes",
      "name": "Peter Pane",
      "opening_hours": "11:00+",
      "outdoor_seating": "yes",
      "toilets:wheelchair": "yes",
      "wheelchair": "yes"
    }
  },
  {
    "type": "node",
    "id": 8042862858,
    "lat": 52.5199561,
    "lon": 13.414566,
    "tags": {
      "addr:city": "Berlin",
      "addr:housenumber": "20",
      "addr:postcode": "10179",
      "addr:street": "Grunerstra\u00dfe",
      "amenity": "restaurant",
      "cuisine": "burger",
      "diet:vegan": "only",
      "diet:vegetarian": "only",
      "indoor_seating": "yes",
      "level": "2",
      "name": "Vedang",
      "opening_hours": "Mo-Sa 11:00-20:00; Su off",
      "outdoor_seating": "no",
      "website": "https://vedang.de"
    }
  },
  {
    "type": "node",
    "id": 8909528040,
    "lat": 52.5173981,
    "lon": 13.4015454,
    "tags": {
      "amenity": "restaurant",
      "check_date": "2023-01-31",
      "check_date:opening_hours": "2024-04-30",
      "diet:vegan": "yes",
      "diet:vegetarian": "yes",
      "indoor_seating": "yes",
      "level": "0",
      "name": "Bistro Lebenswelten",
      "opening_hours": "10:00-19:00",
      "outdoor_seating": "patio",
      "reservation": "yes",
      "website": "https://www.humboldtforum.org/de/programm/dauerangebot/essen-und-trinken/lebenswelten-bistro-22193/",
      "wheelchair": "yes"
    }
  },
  {
    "type": "node",
    "id": 8988109517,
    "lat": 52.5249117,
    "lon": 13.3958377,
    "tags": {
      "addr:city": "Berlin",
      "addr:country": "DE",
      "addr:housenumber": "23",
      "addr:postcode": "10115",
      "addr:street": "Krausnickstra\u00dfe",
      "addr:suburb": "Mitte",
      "amenity": "restaurant",
      "check_date": "2024-06-22",
      "contact:facebook": "https://m.facebook.com/berlin.kinza/",
      "cuisine": "georgian",
      "indoor_seating": "yes",
      "level": "0",
      "name": "Kin Za",
      "outdoor_seating": "yes",
      "payment:cash": "yes",
      "payment:credit_cards": "yes",
      "payment:debit_cards": "yes",
      "wheelchair": "yes"
    }
  },
  {
    "type": "node",
    "id": 9381487072,
    "lat": 52.5158147,
    "lon": 13.3939157,
    "tags": {
      "addr:city": "Berlin",
      "addr:housenumber": "37",
      "addr:postcode": "10117",
      "addr:street": "Behrenstra\u00dfe",
      "amenity": "restaurant",
      "cuisine": "italian",
      "name": "CHIARO",
      "start_date": "2021-10"
    }
  },
  {
    "type": "node",
    "id": 9681836928,
    "lat": 52.5174248,
    "lon": 13.4008935,
    "tags": {
      "addr:city": "Berlin",
      "addr:country": "DE",
      "addr:postcode": "10178",
      "addr:street": "Schlo\u00dfplatz",
      "addr:suburb": "Mitte",
      "amenity": "restaurant",
      "contact:website": "https://www.humboldtforum.org/de/programm/dauerangebot/essen-und-trinken/restaurant-baret-34035/",
      "cuisine": "regional",
      "indoor_seating": "yes",
      "location": "roof",
      "name": "Baret",
      "opening_hours": "Mo,We-Su 10:00-24:00; Tu off",
      "outdoor_seating": "no",
      "wheelchair": "yes"
    }
  },
  {
    "type": "node",
    "id": 9999389413,
    "lat": 52.5111836,
    "lon": 13.4032313,
    "tags": {
      "addr:housenumber": "2",
      "addr:street": "Wallstra\u00dfe",
      "amenity": "restaurant",
      "bar": "no",
      "check_date": "2022-09-10",
      "cuisine": "sushi;asian",
      "delivery": "yes",
      "diet:vegan": "yes",
      "diet:vegetarian": "yes",
      "email": "haicoffeeasianfood@gmail.com",
      "highchair": "yes",
      "indoor_seating": "yes",
      "internet_access": "no",
      "microbrewery": "no",
      "name": "Hai Coffee",
      "opening_hours": "Mo-Fr 11:00-22:00; Sa-Su 12:00-22:00",
      "outdoor_seating": "yes",
      "payment:mastercard": "yes",
      "payment:visa": "yes",
      "phone": "+49 30 32593243",
      "smoking": "outside",
      "takeaway": "yes",
      "website": "https://www.haicoffee.de/",
      "wheelchair": "limited"
    }
  },
  {
    "type": "node",
    "id": 10111376694,
    "lat": 52.5252358,
    "lon": 13.4107648,
    "tags": {
      "alt_name": "Pho Co;PhoCo",
      "amenity": "restaurant",
      "check_date": "2024-06-11",
      "contact:email": "phoco2018@gmail.com",
      "contact:phone": "+49 30 39710948",
      "contact:website": "https://phoco-berlin.de/",
      "cuisine": "vietnamese",
      "diet:vegan": "yes",
      "diet:vegetarian": "yes",
      "indoor_seating": "yes",
      "level": "0",
      "name": "Ph\u1edf C\u1edf",
      "name:de": "Ph\u1edf C\u1edf",
      "name:vi": "Ph\u1edf C\u1edf",
      "opening_hours": "Mo-Su,PH 12:00-22:00",
      "outdoor_seating": "yes"
    }
  },
  {
    "type": "node",
    "id": 10281125101,
    "lat": 52.5182405,
    "lon": 13.4157809,
    "tags": {
      "amenity": "restaurant",
      "cuisine": "italian",
      "level": "0",
      "name": "Pomodori"
    }
  },
  {
    "type": "node",
    "id": 10308158102,
    "lat": 52.5212261,
    "lon": 13.4096113,
    "tags": {
      "addr:city": "Berlin",
      "addr:country": "DE",
      "addr:housenumber": "1a",
      "addr:postcode": "10178",
      "addr:street": "Panoramastra\u00dfe",
      "addr:suburb": "Mitte",
      "amenity": "bar",
      "contact:website": "https://www.knutschfleckberlin.de/",
      "email": "info@knutschfleckberlin.de",
      "indoor_seating": "yes",
      "name": "Knutschfleck",
      "opening_hours": "Fr,Sa 19:00-04:00",
      "outdoor_seating": "yes",
      "phone": "+493054083422",
      "wheelchair": "yes"
    }
  },
  {
    "type": "node",
    "id": 10553328549,
    "lat": 52.5242675,
    "lon": 13.4027156,
    "tags": {
      "addr:city": "Berlin",
      "addr:housenumber": "38",
      "addr:postcode": "10178",
      "addr:street": "Rosenthaler Stra\u00dfe",
      "addr:suburb": "Mitte",
      "amenity": "restaurant",
      "mapillary": "586815292752038",
      "name": "BITE by RitterRichard",
      "operator": "RITTERRICHARD Catering",
      "website": "https://ritterrichard.de/the-byte/"
    }
  },
  {
    "type": "node",
    "id": 10658050011,
    "lat": 52.5241854,
    "lon": 13.3934646,
    "tags": {
      "amenity": "restaurant",
      "indoor_seating": "yes",
      "name": "Dieselhaus",
      "opening_hours": "PH,Mo-Su 12:00-22:00",
      "outdoor_seating": "yes",
      "website": "https://dieselhaus-berlin.de/"
    }
  },
  {
    "type": "node",
    "id": 10733749441,
    "lat": 52.5193411,
    "lon": 13.4099222,
    "tags": {
      "addr:city": "Berlin",
      "addr:housenumber": "13",
      "addr:postcode": "10178",
      "addr:street": "Rathausstra\u00dfe",
      "amenity": "restaurant",
      "cuisine": "indian",
      "diet:vegan": "yes",
      "diet:vegetarian": "yes",
      "email": "info@mumbai-local.de",
      "indoor_seating": "yes",
      "internet_access": "no",
      "level": "0",
      "name": "Mumbai Local",
      "name:hi": "\u092e\u0941\u0902\u092c\u0908 \u0932\u094b\u0915\u0932",
      "opening_hours": "Mo-Su 11:30-1:00",
      "outdoor_seating": "yes",
      "phone": "+49 30 50959406",
      "smoking": "outside",
      "takeaway": "yes",
      "website": "https://www.mumbai-local.de/"
    }
  },
  {
    "type": "node",
    "id": 10743690867,
    "lat": 52.5229774,
    "lon": 13.4006563,
    "tags": {
      "amenity": "restaurant",
      "cuisine": "asian",
      "delivery": "yes",
      "indoor_seating": "yes",
      "name": "Com Nam",
      "outdoor_seating": "yes",
      "wheelchair": "yes"
    }
  },
  {
    "type": "node",
    "id": 10763204005,
    "lat": 52.5249038,
    "lon": 13.4090232,
    "tags": {
      "addr:city": "Berlin",
      "addr:country": "DE",
      "addr:housenumber": "9-11",
      "addr:postcode": "10119",
      "addr:street": "Almstadtstra\u00dfe",
      "amenity": "restaurant",
      "check_date": "2024-06-11",
      "contact:phone": "+49 30 23455877",
      "contact:website": "https://www.theklubkitchen.com",
      "email": "INFO@THEKLUBKITCHEN.COM",
      "indoor_seating": "yes",
      "internet_access": "wlan",
      "level": "0",
      "name": "The Klub Kitchen",
      "opening_hours": "Mo-Sa 12:00-19:00; PH off",
      "outdoor_seating": "yes",
      "payment:cash": "yes",
      "payment:credit_cards": "yes",
      "payment:debit_cards": "yes"
    }
  },
  {
    "type": "node",
    "id": 10901668722,
    "lat": 52.5178944,
    "lon": 13.4019325,
    "tags": {
      "amenity": "restaurant",
      "name": "Wilhelm"
    }
  },
  {
    "type": "node",
    "id": 10901675257,
    "lat": 52.5177898,
    "lon": 13.4024502,
    "tags": {
      "amenity": "restaurant",
      "name": "Deli Alexander"
    }
  },
  {
    "type": "node",
    "id": 10973524105,
    "lat": 52.5136927,
    "lon": 13.4117569,
    "tags": {
      "amenity": "restaurant",
      "indoor_seating": "yes",
      "name": "Spreedeck",
      "name:en": "Spreedeck",
      "outdoor_seating": "yes"
    }
  },
  {
    "type": "node",
    "id": 11435888769,
    "lat": 52.514961,
    "lon": 13.3945142,
    "tags": {
      "addr:street": "Franz\u00f6sische Stra\u00dfe",
      "amenity": "restaurant",
      "cuisine": "steak_house",
      "name": "Beef Grill Club"
    }
  },
  {
    "type": "node",
    "id": 11568896234,
    "lat": 52.5152245,
    "lon": 13.4093327,
    "tags": {
      "amenity": "restaurant",
      "email": "hello@moneta-berlin.de",
      "name": "Moneta",
      "phone": "+49 15165473929",
      "website": "https://monetaberlin.wixsite.com/moneta-berlin"
    }
  },
  {
    "type": "node",
    "id": 11669256242,
    "lat": 52.5211981,
    "lon": 13.4087233,
    "tags": {
      "addr:housenumber": "1a",
      "addr:street": "Panoramastra\u00dfe",
      "amenity": "bar",
      "name": "Knutschfleck",
      "phone": "+49 30 54083422",
      "website": "https://www.knutschfleckberlin.de/"
    }
  },
  {
    "type": "node",
    "id": 11829124900,
    "lat": 52.5251715,
    "lon": 13.4107281,
    "tags": {
      "addr:city": "Berlin",
      "addr:housenumber": "20",
      "addr:postcode": "10178",
      "addr:street": "Rosa-Luxemburg-Stra\u00dfe",
      "amenity": "bar",
      "contact:instagram": "https://www.instagram.com/hierwodustrahlst/",
      "name": "Hier wo du strahlst",
      "opening_hours": "Mo-Sa 20:00+"
    }
  },
  {
    "type": "node",
    "id": 11872365935,
    "lat": 52.5258489,
    "lon": 13.4039008,
    "tags": {
      "amenity": "restaurant",
      "check_date": "2024-06-22",
      "cuisine": "tapas",
      "name": "Caf\u00e9 Camaleon",
      "reusable_packaging:offer": "yes",
      "reusable_packaging:offer:brand": "vytal"
    }
  },
  {
    "type": "node",
    "id": 11930572675,
    "lat": 52.523716,
    "lon": 13.4008246,
    "tags": {
      "addr:housenumber": "5",
      "addr:street": "Oranienburger Stra\u00dfe",
      "amenity": "restaurant",
      "check_date": "2024-05-24",
      "cuisine": "sushi",
      "name": "Friendly Fish",
      "wheelchair": "no"
    }
  },
  {
    "type": "node",
    "id": 12001078369,
    "lat": 52.5226556,
    "lon": 13.4079224,
    "tags": {
      "addr:postcode": "10178",
      "amenity": "bar",
      "name": "Bata Bar & Billiards am Alex",
      "opening_hours": "Su-Th 12:00-02:00; Fr-Sa 12:00-05:00",
      "phone": "+4930200065900",
      "website": "https://www.batabar.com/",
      "website:menu": "https://www.batabar.com/getraenkekarte-alex"
    }
  },
  {
    "type": "node",
    "id": 12090841219,
    "lat": 52.5207396,
    "lon": 13.4085082,
    "tags": {
      "addr:city": "Berlin",
      "addr:housenumber": "1A",
      "addr:postcode": "10178",
      "addr:street": "Panoramastra\u00dfe",
      "amenity": "bar",
      "email": "info@lieschen-mueller.com",
      "name": "Lieschen Mueller",
      "opening_hours": "Mo-Su 10:00+",
      "phone": "+49 030 54 08 34 22",
      "website": "https://lieschen-mueller.com"
    }
  }
]
